#dP2022  1 19  0  0  0.00000000      96 __u+U ITR00 FIT  IAC
## 2193 259200.00000000   900.00000000 59598 0.0000000000000
+  125   C01C02C03C04C05C06C07C08C09C10C11C12C13C14C16C19C20
+        C21C22C23C24C25C26C27C28C29C30C32C33C34C35C36C37C38
+        C40C41C42C43C44C45C46C59C60E01E02E03E04E05E07E08E09
+        E11E12E13E14E15E18E19E21E24E25E26E27E30E31E33E36G01
+        G02G03G04G05G06G07G08G09G10G12G13G14G15G16G17G18G19
+        G20G21G22G23G24G25G26G27G28G29G30G31G32J01J02J03J07
+        R01R02R03R04R05R06R07R08R09R10R11R12R13R14R15R17R18
+        R19R20R21R22R23R24  0  0  0  0  0  0  0  0  0  0  0
++         0 15 15 15 15  9  9 10  8  9  9  9  9  8  9  7  7
++         7  7  7  7  7  7  7  7  7  7  7  7  7  7  8  7  8
++         8  7  7  7  8  8  7 16 15  4  5  5  5  4  4  4  5
++         5  5  5  4  5  4  4  4  5  5  4  5  5  4  4  5  4
++         4  4  4  4  4  4  4  4  4  4  4  3  4  4  4  4  4
++         4  4  0  4  3  4  4  4  4  4  4  4  3  9  8  8 16
++         7  5  5  5  6 14  6  6  6 13  7  6  7  6  6  6  6
++         7  7  6  7 14  6  0  0  0  0  0  0  0  0  0  0  0
%c M  cc GPS ccc cccc cccc cccc cccc ccccc ccccc ccccc ccccc
%c cc cc ccc ccc cccc cccc cccc cccc ccccc ccccc ccccc ccccc
%f  0.0000000  0.000000000  0.00000000000  0.000000000000000
%f  0.0000000  0.000000000  0.00000000000  0.000000000000000
%i    0    0    0    0      0      0      0      0         0
%i    0    0    0    0      0      0      0      0         0
/* INFORMATION & ANALYSIS CENTER (IAC)            RAPID DATA
/* S/V CLOCKS ARE ALIGNED TO GNSS TIME                      
/* G:C1WC2W R:C1PC2P E:C1XC5X C:C2IC6I J:C1CC2S             
/* PCV:IGS14_2188 OL/AL:FES2004  NONE     YN ORB:CoN CLK:CoN
*  2022 01 19 19 15  0.00000000
PC01      0.000000      0.000000      0.000000 999999.999999
PC02   4306.405273  41967.158801    895.066286    695.830427
PC03 -14821.617822  39456.906378   1229.718265    616.440015
PC04 -39596.629476  14420.980962    274.267891    -46.683807
PC05  21844.299015  36071.179991    861.438782   -509.497275
PC06 -17750.240570  36077.344793 -13037.817759    -94.613123
PC07  -2384.326566  35855.294140 -21934.169805    -20.332677
PC08  -8852.999593  19794.953243  36156.505264     71.610558
PC09 -12235.152376  34991.021683 -20215.860900   -448.839452
PC10   3664.186334  38092.817895 -16912.573769    139.604151
PC11 -12739.539039  -8566.877655 -23230.931785   -260.563222
PC12   2749.090351 -21395.694525 -17666.871780   -434.385511
PC13  -1641.805377  22447.333903  35788.874195   -142.049989
PC14 -16471.136530 -18864.017510  12386.465173    467.171730
PC16 -19997.299806  35813.235742 -10179.189595     60.217056
PC19  17838.430285   9622.562514 -19153.045144    907.906414
PC20  13159.045549  24021.346378  -5268.797806   -807.657803
PC21   -260.165313 -24888.338580 -12620.491164   -966.946412
PC22  12382.798538 -10937.625557 -22492.630472   -959.221024
PC23 -22784.435805   6858.818586 -14573.867703   -969.790483
PC24 -14993.374142 -15404.429215  17761.290723   -944.947519
PC25 -27424.784593  -4870.418331   1459.810744   -792.286861
PC26   3884.489686 -15834.637689  22635.592699    791.205034
PC27 -10353.296324  23698.184646  10493.676053    663.934406
PC28 -20718.932205  17379.790870  -6878.909380     22.752998
PC29  18940.557378  -1339.743364  20445.766738    503.612068
PC30   6151.027908  16548.661638  21615.059008    491.513641
PC32    367.654533  24850.187820  12701.410140   -959.015570
PC33 -17934.065978  -9609.231339  19108.430322   -955.013098
PC34  -6990.128802 -15836.668312 -21888.321017   -488.175097
PC35  20286.009884 -17602.346603   7503.789050    100.501779
PC36  27232.254427   5812.403147  -1908.099063   -871.942076
PC37  -5421.576675  15492.496228 -22557.002954   -946.267277
PC38 -16688.334690  20190.080508  33031.942947    205.274442
PC40  -5690.175470  32706.471723 -25927.894872    237.023275
PC41 -12637.072559  10551.674528  22582.065452   -925.209615
PC42 -12764.293974 -24434.279298   4420.198821   -929.197750
PC43 -18774.069240    574.091949 -20650.372620   -947.017368
PC44   9594.152078 -24077.437220 -10302.175317    536.975048
PC45  22649.417657  -6924.845072  14777.022625    658.100891
PC46  16376.508406  14929.969688 -16990.132486   -123.254283
PC59 -32301.850135  27085.892444    -43.675274     -0.431929
PC60   7262.719582  41523.092759    986.876822     -0.272277
PE01  22350.406754  19313.688016  -2024.187514   -562.655631
PE02 -22410.199173 -19226.030062   1869.163648    274.668745
PE03 -11935.908100 -17994.778188  20243.251024   -518.792183
PE04  17369.836238  -3391.354520 -23725.758051   -946.260527
PE05    612.588962 -29200.315069   4801.496909   -217.097473
PE07 -12639.431507  23264.299562  13231.184628   -630.146305
PE08 -17223.134368   3959.699929  23740.747162   5869.408144
PE09  12368.073081 -23490.305187 -13105.348486   5389.525310
PE11  21715.473912 -16781.810754 -11071.189247   4643.286236
PE12  27809.179458  -5513.519162   8486.865782   4801.959173
PE13 -22138.975688  16604.365095  10523.835083    425.790115
PE14  16936.246689  -4372.695481  17557.604517  -1715.892127
PE15 -27773.281629   5547.238585  -8601.662020    768.346467
PE18 -19506.141908  -5266.676931 -24304.113299  -1889.112719
PE19  10513.236925  20179.674285 -18935.741066    481.589153
PE21   8309.014165  21990.014289 -17998.606984   -712.191779
PE24  12512.777933 -11256.415689  24336.895023  -1344.111563
PE25  -8049.990757 -21933.564633  18168.474628   -560.815016
PE26  -2390.039726  17737.192929  23586.817244   -706.689837
PE27 -11314.193417  12227.546841 -24465.968221   -213.188412
PE30 -24458.199081  -5685.376571 -15665.576761   -205.177531
PE31  24144.262531   4663.550845  16490.551302   -490.982757
PE33  16998.646255   8758.717432  22603.337169   -460.235379
PE36   3533.105154 -17836.190662 -23344.535733   -320.351444
PG01  -3367.800375 -14390.924787 -22343.392276    453.097895
PG02 -17950.949114  15387.551029  12878.898624   -649.030297
PG03 -10785.564889 -21820.776176 -10858.010089    -84.859324
PG04  -1090.954492 -23672.429190  11915.415367   -194.169965
PG05  -3382.962822  16490.683813  20345.388549    -68.465029
PG06 -26005.280786   5354.667935  -1522.571746    175.685316
PG07 -19429.888190  -7779.006005  17010.676826    303.271180
PG08   5833.304172 -25684.784193  -1336.723193    -52.805897
PG09  -9950.700366 -15381.973448  19146.497063   -357.382510
PG10  21164.809340   8185.087484 -13904.060406   -297.765777
PG12   7109.554645  22295.901199 -12949.933571   -158.263524
PG13 -13215.042038  22460.884994   4516.288184    247.961277
PG14 -20970.850192  -9004.199541 -13644.583866    -72.905630
PG15  -2351.547384  26210.128601  -2299.672690    -90.306133
PG16   8204.252442 -13046.932156  21306.198351   -457.936604
PG17 -15108.298042   -324.433290 -21412.155614    563.666486
PG18  19483.955974   7214.845281  16601.322449    257.628856
PG19 -16988.114687   7889.098051 -19019.399703    107.714842
PG20 -12341.988700  10038.360497  21237.540903    517.099057
PG21   6864.991891 -16303.820772 -18929.998572    156.447428
PG22      0.000000      0.000000      0.000000 999999.999999
PG23  20614.988220  16349.960997  -3992.813019      9.551628
PG24   -619.452536  16559.693171 -20982.405599    277.060367
PG25  17061.744637  20390.172085  -2890.322652    273.278507
PG26  17852.082321  -2833.471284  19478.696174    175.826043
PG27  12331.399615 -21507.555067   8776.178903     77.561631
PG28 -18119.850047  -2140.300717 -18694.959427    418.671241
PG29   6025.674108  18473.892787  18039.148627   -469.405687
PG30 -24988.047954  -1326.823378   9322.518528   -507.847502
PG31  26036.411882  -6376.158425    739.030397   -160.722938
PG32  16150.007045  -4404.647946 -20456.162833    -53.187298
PJ01 -27889.782176  23436.544756  26176.452880    288.010438
PJ02 -25164.532248  15911.387146 -25329.020666     -0.858728
PJ03 -27169.222526  32202.155938   3806.142079     -0.212747
PJ07 -25400.793674  33661.683663    -18.656665     -0.021242
PR01  -2370.756929  21311.956459  13807.440313      7.143790
PR02   6924.158663  23909.473106  -5690.369155    507.049104
PR03  11562.800509  11354.003782 -19679.161731     50.195624
PR04   9393.591894  -7303.808748 -22535.875001    124.240253
PR05   2245.309309 -21886.626752 -12875.279033     86.248675
PR06  -8135.953402 -23210.561335   6702.651218    -27.953016
PR07 -11617.154248 -10520.055301  20144.495352     30.829694
PR08  -9485.882825   7481.474878  22522.930081    -63.169314
PR09 -14117.039997 -13371.765152  16562.354133     34.959887
PR10 -23706.035406  -9074.174478   2041.717687    -79.041459
PR11 -20550.378956    598.284334 -15098.132696     46.957260
PR12  -4391.238403  10103.919479 -22985.137406    296.299931
PR13  13120.341508  13252.008271 -17427.596000    -17.251135
PR14  23977.147823   8664.140292   -665.856881     73.407552
PR15  20144.456295   -852.306830  15642.393909     98.781366
PR17  14997.116823   -370.539548  20655.838844    494.061898
PR18  20698.587604 -12501.624762   8057.508610    104.395995
PR19  16688.998146 -17607.177803  -7878.448786   -175.019301
PR20    427.785928 -12774.079333 -22051.532366    -63.344202
PR21 -15774.357639   1457.107352 -19977.984921   -271.350682
PR22 -20829.386265  12994.011018  -7115.358231   -159.158839
PR23 -12294.247476  17870.715262  13424.338193    -27.319668
PR24    767.811877  12759.904852  22094.652980     76.389918
EOF
